[{"OBJECT_NAME":"STARLINK-30222","OBJECT_ID":"2023-102F","EPOCH":"2026-03-09T22:00:01.999584","MEAN_MOTION":15.19444548,"ECCENTRICITY":0.00017493,"INCLINATION":42.9999,"RA_OF_ASC_NODE":246.6344,"ARG_OF_PERICENTER":283.4256,"MEAN_ANOMALY":32.335,"EPHEMERIS_TYPE":0,"CLASSIFICATION_TYPE":"U","NORAD_CAT_ID":57409,"ELEMENT_SET_NO":999,"REV_AT_EPOCH":572,"BSTAR":0.047434573,"MEAN_MOTION_DOT":0.01110087,"MEAN_MOTION_DDOT":0},{"OBJECT_NAME":"WARATAH SEED-1","OBJECT_ID":"2024-149B","EPOCH":"2026-03-09T19:21:48.743424","MEAN_MOTION":15.33303417,"ECCENTRICITY":0.00017261,"INCLINATION":97.3737,"RA_OF_ASC_NODE":149.4647,"ARG_OF_PERICENTER":177.0754,"MEAN_ANOMALY":183.0499,"EPHEMERIS_TYPE":0,"CLASSIFICATION_TYPE":"U","NORAD_CAT_ID":60469,"ELEMENT_SET_NO":999,"REV_AT_EPOCH":8687,"BSTAR":0.00046860168,"MEAN_MOTION_DOT":0.00015015,"MEAN_MOTION_DDOT":0}]
